NORAD_CAT_ID,OBJECT_NAME,OBJECT_TYPE,EPOCH,MEAN_MOTION,ECCENTRICITY,INCLINATION,RA_OF_ASC_NODE,ARG_OF_PERICENTER,MEAN_ANOMALY,BSTAR,MEAN_MOTION_DOT,MEAN_MOTION_DDOT,TLE_LINE0,TLE_LINE1,TLE_LINE2,SEMIMAJOR_AXIS,PERIOD,APOGEE,PERIGEE,DECAYED
51983.0,STARLINK-3655,PAYLOAD,2022-04-21 22:00:00,15.45416359,0.0001115,53.2174,287.2298,105.391,272.782,-0.015271,-0.00688819,0.0,0 STARLINK-3655,1 51983U 22025AD  22111.91667824 -.00688819  00000-0 -15271-1 0  9996,2 51983  53.2174 287.2298 0001115 105.3910 272.7820 15.45416359  3706,6808.292,93.179,430.916,429.398,0.0
51983.0,STARLINK-3655,PAYLOAD,2022-04-22 06:00:00,15.44928622,0.0001115,53.2175,285.6425,106.6479,326.7763,-0.015549,-0.00689634,0.0,0 STARLINK-3655,1 51983U 22025AD  22112.25001157 -.00689634  00000-0 -15549-1 0  9999,2 51983  53.2175 285.6425 0001115 106.6479 326.7763 15.44928622  8144,6809.725,93.208,432.349,430.831,0.0
51983.0,STARLINK-3655,PAYLOAD,2022-04-22 14:00:01,15.44441763,0.0001219,53.2174,284.0583,86.4066,41.6806,-0.015868,-0.00691977,0.0,0 STARLINK-3655,1 51983U 22025AD  22112.58334491 -.00691977  00000-0 -15868-1 0  9992,2 51983  53.2174 284.0583 0001219  86.4066  41.6806 15.44441763  3695,6811.156,93.238,433.851,432.191,0.0
51983.0,STARLINK-3655,PAYLOAD,2022-04-23 06:00:02,15.43463914,0.0001305,53.2175,280.8923,105.3124,130.4071,-0.016338,-0.0068933,0.0,0 STARLINK-3655,1 51983U 22025AD  22113.25002315 -.00689330  00000-0 -16338-1 0  9997,2 51983  53.2175 280.8923 0001305 105.3124 130.4071 15.43463914  8305,6814.031999999997,93.297,436.787,435.008,0.0
51983.0,STARLINK-3655,PAYLOAD,2022-04-23 14:00:01,15.4297644,0.0001248,53.2175,279.312,86.3517,202.2065,-0.016646,-0.00690697,0.0,0 STARLINK-3655,1 51983U 22025AD  22113.58334491 -.00690697  00000-0 -16646-1 0  9996,2 51983  53.2175 279.3120 0001248  86.3517 202.2065 15.42976440  3675,6815.467,93.326,438.1830000000001,436.482,0.0
51983.0,STARLINK-3655,PAYLOAD,2022-04-24 06:00:00,15.41998703,0.0001061,53.2175,276.153,84.8282,307.7777,-0.017157,-0.00688908,0.0,0 STARLINK-3655,1 51983U 22025AD  22114.25001157 -.00688908  00000-0 -17157-1 0  9991,2 51983  53.2175 276.1530 0001061  84.8282 307.7777 15.41998703  8457,6818.348000000001,93.385,440.937,439.49,0.0
51983.0,STARLINK-3655,PAYLOAD,2022-04-24 14:00:01,15.41512691,0.0001185,53.2176,274.5764,71.9153,11.8328,-0.017541,-0.00692656,0.0,0 STARLINK-3655,1 51983U 22025AD  22114.58334491 -.00692656  00000-0 -17541-1 0  9999,2 51983  53.2176 274.5764 0001185  71.9153  11.8328 15.41512691  3683,6819.781,93.415,442.454,440.838,0.0
51983.0,STARLINK-3655,PAYLOAD,2022-04-25 06:00:00,15.40533386,0.0001281,53.2173,271.42400000000004,75.2043,109.0718,-0.017976,-0.00687403,0.0,0 STARLINK-3655,1 51983U 22025AD  22115.25001157 -.00687403  00000-0 -17976-1 0  9990,2 51983  53.2173 271.4240 0001281  75.2043 109.0718 15.40533386  8611,6822.670999999999,93.474,445.41,443.662,0.0
51983.0,STARLINK-3655,PAYLOAD,2022-04-25 14:00:01,15.40045737,0.000136,53.2176,269.851,73.3361,160.3226,-0.018304,-0.00688609,0.0,0 STARLINK-3655,1 51983U 22025AD  22115.58334491 -.00688609  00000-0 -18304-1 0  9991,2 51983  53.2176 269.8510 0001360  73.3361 160.3226 15.40045737  3690,6824.111,93.504,446.904,445.048,0.0
51983.0,STARLINK-3655,PAYLOAD,2022-04-25 22:00:00,15.39557138,0.0001226,53.2172,268.2791,92.4278,190.0268,-0.018567,-0.00687365,0.0,0 STARLINK-3655,1 51983U 22025AD  22115.91667824 -.00687365  00000-0 -18567-1 0  9996,2 51983  53.2172 268.2791 0001226  92.4278 190.0268 15.39557138  3686,6825.555,93.533,448.257,446.583,0.0
51983.0,STARLINK-3655,PAYLOAD,2022-04-26 06:00:00,15.39067903,0.0001135,53.2173,266.7057,80.2118,250.4544,-0.018842,-0.00686427,0.0,0 STARLINK-3655,1 51983U 22025AD  22116.25001157 -.00686427  00000-0 -18842-1 0  9999,2 51983  53.2173 266.7057 0001135  80.2118 250.4544 15.39067903  8760,6827.001,93.563,449.641,448.091,0.0
51983.0,STARLINK-3655,PAYLOAD,2022-04-26 14:00:01,15.38582644,0.0001198,53.2176,265.1362,66.1233,312.2284,-0.019296,-0.00691447,0.0,0 STARLINK-3655,1 51983U 22025AD  22116.58335648 -.00691447  00000-0 -19296-1 0  9992,2 51983  53.2176 265.1362 0001198  66.1233 312.2284 15.38582644  3671,6828.437,93.593,451.12,449.484,0.0
51983.0,STARLINK-3655,PAYLOAD,2022-04-26 22:00:00,15.38092952,0.0001185,53.2171,263.5677,66.1953,359.1285,-0.01951,-0.0068822,0.0,0 STARLINK-3655,1 51983U 22025AD  22116.91667824 -.00688220  00000-0 -19510-1 0  9997,2 51983  53.2171 263.5677 0001185  66.1953 359.1285 15.38092952  3637,6829.886,93.622,452.56,450.942,0.0
51983.0,STARLINK-3655,PAYLOAD,2022-04-27 06:00:00,15.37604209,0.0001196,53.2172,261.9977,73.4512,38.3238,-0.01983,-0.00688404,0.0,0 STARLINK-3655,1 51983U 22025AD  22117.25001157 -.00688404  00000-0 -19830-1 0  9995,2 51983  53.2172 261.9977 0001196  73.4512  38.3238 15.37604209  8910,6831.333000000001,93.652,454.015,452.381,0.0
51983.0,STARLINK-3655,PAYLOAD,2022-04-27 14:00:01,15.36964777,0.0001409999999999,53.2168,260.4359,95.1777,62.605,-0.0140669999999999,-0.00484687,0.0,0 STARLINK-3655,1 51983U 22025AD  22117.58335648 -.00484687  00000-0 -14067-1 0  9990,2 51983  53.2168 260.4359 0001410  95.1777  62.6050 15.36964777  3641,6833.228,93.691,456.056,454.129,0.0
51983.0,STARLINK-3655,PAYLOAD,2022-04-28 06:00:00,15.36139033,0.0001289,53.2172,257.2999,84.9279,162.6762,-0.020763,-0.00687376,0.0,0 STARLINK-3655,1 51983U 22025AD  22118.25001157 -.00687376  00000-0 -20763-1 0  9990,2 51983  53.2172 257.2999 0001289  84.9279 162.6762 15.36139033  9070,6835.676,93.742,458.422,456.66,0.0
51983.0,STARLINK-3655,PAYLOAD,2022-04-28 14:00:01,15.35650832,0.0001284999999999,53.2172,255.7378,78.1594,213.5467,-0.021093,-0.0068738,0.0,0 STARLINK-3655,1 51983U 22025AD  22118.58334491 -.00687380  00000-0 -21093-1 0  9998,2 51983  53.2172 255.7378 0001285  78.1594 213.5467 15.35650832  3677,6837.125,93.771,459.869,458.111,0.0
51983.0,STARLINK-3655,PAYLOAD,2022-04-29 06:00:00,15.34673324,0.0001117,53.2171,252.6127,81.7712,296.3818,-0.021726,-0.00686187,0.0,0 STARLINK-3655,1 51983U 22025AD  22119.25001157 -.00686187  00000-0 -21726-1 0  9990,2 51983  53.2171 252.6127 0001117  81.7712 296.3818 15.34673324  9226,6840.028,93.831,462.657,461.129,0.0
51983.0,STARLINK-3655,PAYLOAD,2022-04-29 14:00:01,15.34187735,0.0001261,53.2173,251.0543,63.2159,357.2779,-0.022212,-0.00690414,0.0,0 STARLINK-3655,1 51983U 22025AD  22119.58334491 -.00690414  00000-0 -22212-1 0  9995,2 51983  53.2173 251.0543 0001261  63.2159 357.2779 15.34187735  3675,6841.471,93.861,464.199,462.473,0.0
51983.0,STARLINK-3655,PAYLOAD,2022-04-29 22:00:00,15.33698461,0.0001172,53.2171,249.4955,83.1935,19.0563,-0.022477,-0.00688014,0.0,0 STARLINK-3655,1 51983U 22025AD  22119.91667824 -.00688014  00000-0 -22477-1 0  9997,2 51983  53.2171 249.4955 0001172  83.1935  19.0563 15.33698461  3660,6842.926,93.891,465.593,463.989,0.0
51983.0,STARLINK-3655,PAYLOAD,2022-04-30 06:00:00,15.3321117,0.0001286999999999,53.2171,247.9361,74.7745,68.6455,-0.022928,-0.00690828,0.0,0 STARLINK-3655,1 51983U 22025AD  22120.25001157 -.00690828  00000-0 -22928-1 0  9994,2 51983  53.2171 247.9361 0001287  74.7745  68.6455 15.33211170  9378,6844.376,93.921,467.122,465.36,0.0
51983.0,STARLINK-3655,PAYLOAD,2022-04-30 14:00:01,15.32720643,0.0001416,53.2171,246.381,69.2804,114.7223,-0.023146,-0.00686961,0.0,0 STARLINK-3655,1 51983U 22025AD  22120.58334491 -.00686961  00000-0 -23146-1 0  9996,2 51983  53.2171 246.3810 0001416  69.2804 114.7223 15.32720643  3648,6845.8359999999975,93.951,468.671,466.732,0.0
51983.0,STARLINK-3655,PAYLOAD,2022-04-30 22:00:00,15.32235055,0.0001319,53.2171,244.8255,89.302,134.6955,-0.023658,-0.00691129,0.0,0 STARLINK-3655,1 51983U 22025AD  22120.91667824 -.00691129  00000-0 -23658-1 0  9992,2 51983  53.2171 244.8255 0001319  89.3020 134.6955 15.32235055  3673,6847.281999999997,93.98,470.051,468.244,0.0
51983.0,STARLINK-3655,PAYLOAD,2022-05-01 14:00:01,15.31256332,0.0001363,53.2173,241.7182,66.4641,235.7657,-0.024253,-0.00687344,0.0,0 STARLINK-3655,1 51983U 22025AD  22121.58334491 -.00687344  00000-0 -24253-1 0  9993,2 51983  53.2173 241.7182 0001363  66.4641 235.7657 15.31256332  9582,6850.2,94.04,472.999,471.131,0.0
51983.0,STARLINK-3655,PAYLOAD,2022-05-01 22:00:01,15.30770534,0.0001144,53.2172,240.1659,90.0989,250.4296,-0.02478,-0.0069134,0.0,0 STARLINK-3655,1 51983U 22025AD  22121.91668981 -.00691340  00000-0 -24780-1 0  9990,2 51983  53.2172 240.1659 0001144  90.0989 250.4296 15.30770534  3679,6851.649,94.07,474.298,472.73,0.0
51983.0,STARLINK-3655,PAYLOAD,2022-05-02 14:00:01,15.29793619,0.0001359,53.2174,237.0657,57.4632,357.7127,-0.025516,-0.00690619,0.0,0 STARLINK-3655,1 51983U 22025AD  22122.58334491 -.00690619  00000-0 -25516-1 0  9996,2 51983  53.2174 237.0657 0001359  57.4632 357.7127 15.29793619  9738,6854.566,94.13,477.362,475.499,0.0
51983.0,STARLINK-3655,PAYLOAD,2022-05-02 22:00:01,15.29304032,0.0001186,53.2172,235.5167,77.97399999999998,13.742,-0.025803,-0.00688045,0.0,0 STARLINK-3655,1 51983U 22025AD  22122.91668981 -.00688045  00000-0 -25803-1 0  9996,2 51983  53.2172 235.5167 0001186  77.9740  13.7420 15.29304032  3668,6856.029,94.16,478.707,477.08,0.0
51983.0,STARLINK-3655,PAYLOAD,2022-05-03 14:00:01,15.28327228,0.0001579,53.2173,232.4236,54.3845,108.4587,-0.026595,-0.00688142,0.0,0 STARLINK-3655,1 51983U 22025AD  22123.58334491 -.00688142  00000-0 -26595-1 0  9993,2 51983  53.2173 232.4236 0001579  54.3845 108.4587 15.28327228  3660,6858.95,94.221,481.898,479.732,0.0
51983.0,STARLINK-3655,PAYLOAD,2022-05-03 20:00:01,15.27961909,0.0001333,53.2172,231.2651,65.7216,33.2121,-0.026893,-0.00688056,0.0,0 STARLINK-3655,1 51983U 22025AD  22123.83334491 -.00688056  00000-0 -26893-1 0  9996,2 51983  53.2172 231.2651 0001333  65.7216  33.2121 15.27961909  9926,6860.043000000002,94.243,482.822,480.99300000000005,0.0
